QIANFAN-49              
1 62250U 24232P   26008.50343825  .00000043  00000+0  48089-4 0  9993
2 62250  89.0004  38.5338 0016023 115.1491 245.1324 13.50983143 71457
QIANFAN-50              
1 62251U 24232Q   26008.45409230  .00000041  00000+0  45315-4 0  9998
2 62251  89.0009  38.5484 0017660 116.7380 243.5580 13.50979983 71472
QIANFAN-51              
1 62252U 24232R   26008.43761681  .00000044  00000+0  50031-4 0  9992
2 62252  89.0003  38.5423 0015105 119.6042 240.6616 13.50982598 71462
QIANFAN-52              
1 62253U 24232S   26008.46646295  .00000034  00000+0  34377-4 0  9993
2 62253  88.9999  38.4119 0017205 112.9951 247.3017 13.50980642 71551
QIANFAN-53              
1 62254U 24232T   26008.44582605  .00000048  00000+0  55554-4 0  9991
2 62254  89.0007  38.5205 0016072 113.8574 246.4263 13.50983202 71517
QIANFAN-54              
1 62255U 24232U   26008.48695537  .00000044  00000+0  49378-4 0  9998
2 62255  88.9998  38.1924 0003463 127.6380 232.5086 13.50983592103020
QIANFAN-55              
1 62785U 25016A   26008.29073558  .00000183  00000+0  26454-3 0  9992
2 62785  88.9776 100.4719 0015563 269.6205  90.3163 13.50985063 50778
QIANFAN-56              
1 62786U 25016B   26008.30720558  .00000170  00000+0  24551-3 0  9996
2 62786  88.9749 100.2995 0014187 272.0106  87.9420 13.50987628 50825
